{"fetched_at":"2026-07-11T06:35:32.955Z","source":"https://celestrak.org/NORAD/elements/gp.php?NAME=JILIN&FORMAT=JSON","constellation":"jilin-1-gaofen","records":[{"OBJECT_NAME":"JILIN-1 GAOFEN 03D51","OBJECT_ID":"2022-155B","EPOCH":"2026-07-10T20:16:48.561600","CLASSIFICATION_TYPE":"U","MEAN_MOTION":15.64529954,"ECCENTRICITY":0.0004169,"INCLINATION":97.6245,"RA_OF_ASC_NODE":338.5156,"ARG_OF_PERICENTER":247.7262,"MEAN_ANOMALY":112.3554,"EPHEMERIS_TYPE":0,"NORAD_CAT_ID":54252,"ELEMENT_SET_NO":999,"REV_AT_EPOCH":20344,"BSTAR":0.00042627,"MEAN_MOTION_DOT":0.00041054,"MEAN_MOTION_DDOT":0},{"OBJECT_NAME":"JILIN-1 GAOFEN 03D53","OBJECT_ID":"2022-155C","EPOCH":"2026-07-10T20:36:41.031936","CLASSIFICATION_TYPE":"U","MEAN_MOTION":15.54226843,"ECCENTRICITY":0.0004767,"INCLINATION":97.6236,"RA_OF_ASC_NODE":333.8047,"ARG_OF_PERICENTER":270.1062,"MEAN_ANOMALY":89.9645,"EPHEMERIS_TYPE":0,"NORAD_CAT_ID":54253,"ELEMENT_SET_NO":999,"REV_AT_EPOCH":20316,"BSTAR":0.0003422,"MEAN_MOTION_DOT":0.00022239,"MEAN_MOTION_DDOT":0},{"OBJECT_NAME":"JILIN-1 GAOFEN 03D52","OBJECT_ID":"2022-155E","EPOCH":"2026-07-10T19:48:42.724800","CLASSIFICATION_TYPE":"U","MEAN_MOTION":15.61747852,"ECCENTRICITY":0.0003503,"INCLINATION":97.6217,"RA_OF_ASC_NODE":336.7268,"ARG_OF_PERICENTER":265.3342,"MEAN_ANOMALY":94.7515,"EPHEMERIS_TYPE":0,"NORAD_CAT_ID":54255,"ELEMENT_SET_NO":999,"REV_AT_EPOCH":20339,"BSTAR":0.0004346,"MEAN_MOTION_DOT":0.00037533,"MEAN_MOTION_DDOT":0},{"OBJECT_NAME":"JILIN-1 GAOFEN 03D50","OBJECT_ID":"2022-167J","EPOCH":"2026-07-10T20:39:47.368224","CLASSIFICATION_TYPE":"U","MEAN_MOTION":15.35003806,"ECCENTRICITY":0.0005573,"INCLINATION":97.6845,"RA_OF_ASC_NODE":0.682,"ARG_OF_PERICENTER":35.4302,"MEAN_ANOMALY":324.731,"EPHEMERIS_TYPE":0,"NORAD_CAT_ID":54690,"ELEMENT_SET_NO":999,"REV_AT_EPOCH":19898,"BSTAR":0.00021456,"MEAN_MOTION_DOT":0.00007203,"MEAN_MOTION_DDOT":0},{"OBJECT_NAME":"JILIN-1 GAOFEN 03D47","OBJECT_ID":"2022-167L","EPOCH":"2026-07-10T20:42:29.299104","CLASSIFICATION_TYPE":"U","MEAN_MOTION":15.34288587,"ECCENTRICITY":0.0008126,"INCLINATION":97.6943,"RA_OF_ASC_NODE":2.4211,"ARG_OF_PERICENTER":43.3397,"MEAN_ANOMALY":316.8483,"EPHEMERIS_TYPE":0,"NORAD_CAT_ID":54692,"ELEMENT_SET_NO":999,"REV_AT_EPOCH":19897,"BSTAR":0.00020904,"MEAN_MOTION_DOT":0.0000686,"MEAN_MOTION_DDOT":0},{"OBJECT_NAME":"JILIN-1 GAOFEN 03D49","OBJECT_ID":"2022-167N","EPOCH":"2026-07-10T19:46:16.353696","CLASSIFICATION_TYPE":"U","MEAN_MOTION":15.37974536,"ECCENTRICITY":0.0006322,"INCLINATION":97.682,"RA_OF_ASC_NODE":3.0191,"ARG_OF_PERICENTER":62.3338,"MEAN_ANOMALY":297.8547,"EPHEMERIS_TYPE":0,"NORAD_CAT_ID":54694,"ELEMENT_SET_NO":999,"REV_AT_EPOCH":19912,"BSTAR":0.00023659,"MEAN_MOTION_DOT":0.00008754,"MEAN_MOTION_DDOT":0},{"OBJECT_NAME":"JILIN-1 GAOFEN 03D48","OBJECT_ID":"2022-167P","EPOCH":"2026-07-10T20:32:00.897216","CLASSIFICATION_TYPE":"U","MEAN_MOTION":15.35732375,"ECCENTRICITY":0.0006803,"INCLINATION":97.6892,"RA_OF_ASC_NODE":2.3895,"ARG_OF_PERICENTER":44.194,"MEAN_ANOMALY":315.9845,"EPHEMERIS_TYPE":0,"NORAD_CAT_ID":54695,"ELEMENT_SET_NO":999,"REV_AT_EPOCH":19902,"BSTAR":0.00020447,"MEAN_MOTION_DOT":0.00007024,"MEAN_MOTION_DDOT":0},{"OBJECT_NAME":"JILIN GAOFEN OBJECT A","OBJECT_ID":"2026-080A","EPOCH":"2026-07-11T03:44:12.676992","CLASSIFICATION_TYPE":"U","MEAN_MOTION":15.09176094,"ECCENTRICITY":0.0011579,"INCLINATION":97.6616,"RA_OF_ASC_NODE":267.6398,"ARG_OF_PERICENTER":349.3655,"MEAN_ANOMALY":10.7327,"EPHEMERIS_TYPE":0,"NORAD_CAT_ID":68691,"ELEMENT_SET_NO":999,"REV_AT_EPOCH":1327,"BSTAR":0.00022509,"MEAN_MOTION_DOT":0.00003515,"MEAN_MOTION_DDOT":0},{"OBJECT_NAME":"JILIN GAOFEN OBJECT B","OBJECT_ID":"2026-080B","EPOCH":"2026-07-10T12:58:34.464288","CLASSIFICATION_TYPE":"U","MEAN_MOTION":15.09080685,"ECCENTRICITY":0.00151402,"INCLINATION":97.6594,"RA_OF_ASC_NODE":267.0416,"ARG_OF_PERICENTER":330.3466,"MEAN_ANOMALY":29.6903,"EPHEMERIS_TYPE":0,"NORAD_CAT_ID":68692,"ELEMENT_SET_NO":999,"REV_AT_EPOCH":1318,"BSTAR":0.00020409767,"MEAN_MOTION_DOT":0.00003176,"MEAN_MOTION_DDOT":0},{"OBJECT_NAME":"JILIN GAOFEN OBJECT C","OBJECT_ID":"2026-080C","EPOCH":"2026-07-11T03:42:18.138240","CLASSIFICATION_TYPE":"U","MEAN_MOTION":15.0915985,"ECCENTRICITY":0.0012394,"INCLINATION":97.6594,"RA_OF_ASC_NODE":267.623,"ARG_OF_PERICENTER":329.6909,"MEAN_ANOMALY":30.3601,"EPHEMERIS_TYPE":0,"NORAD_CAT_ID":68693,"ELEMENT_SET_NO":999,"REV_AT_EPOCH":1327,"BSTAR":0.00022294,"MEAN_MOTION_DOT":0.0000348,"MEAN_MOTION_DDOT":0},{"OBJECT_NAME":"JILIN GAOFEN OBJECT D","OBJECT_ID":"2026-080D","EPOCH":"2026-07-10T14:34:39.163008","CLASSIFICATION_TYPE":"U","MEAN_MOTION":15.08936853,"ECCENTRICITY":0.00168175,"INCLINATION":97.6659,"RA_OF_ASC_NODE":267.1791,"ARG_OF_PERICENTER":342.1655,"MEAN_ANOMALY":17.8981,"EPHEMERIS_TYPE":0,"NORAD_CAT_ID":68694,"ELEMENT_SET_NO":999,"REV_AT_EPOCH":1317,"BSTAR":0.00019429586,"MEAN_MOTION_DOT":0.0000301,"MEAN_MOTION_DDOT":0},{"OBJECT_NAME":"JILIN GAOFEN OBJECT E","OBJECT_ID":"2026-080E","EPOCH":"2026-07-10T15:44:58.876800","CLASSIFICATION_TYPE":"U","MEAN_MOTION":15.09229127,"ECCENTRICITY":0.00128195,"INCLINATION":97.6637,"RA_OF_ASC_NODE":267.2476,"ARG_OF_PERICENTER":354.0286,"MEAN_ANOMALY":6.0787,"EPHEMERIS_TYPE":0,"NORAD_CAT_ID":68695,"ELEMENT_SET_NO":999,"REV_AT_EPOCH":1316,"BSTAR":0.00016746154,"MEAN_MOTION_DOT":0.00002603,"MEAN_MOTION_DDOT":0},{"OBJECT_NAME":"JILIN GAOFEN OBJECT F","OBJECT_ID":"2026-080F","EPOCH":"2026-07-10T15:43:24.909888","CLASSIFICATION_TYPE":"U","MEAN_MOTION":15.09193446,"ECCENTRICITY":0.001394,"INCLINATION":97.6608,"RA_OF_ASC_NODE":267.2168,"ARG_OF_PERICENTER":359.6226,"MEAN_ANOMALY":0.499,"EPHEMERIS_TYPE":0,"NORAD_CAT_ID":68696,"ELEMENT_SET_NO":999,"REV_AT_EPOCH":1316,"BSTAR":0.00016814157,"MEAN_MOTION_DOT":0.00002612,"MEAN_MOTION_DDOT":0},{"OBJECT_NAME":"JILIN GAOFEN OBJECT G","OBJECT_ID":"2026-080G","EPOCH":"2026-07-10T13:47:52.789056","CLASSIFICATION_TYPE":"U","MEAN_MOTION":15.09175498,"ECCENTRICITY":0.00138317,"INCLINATION":97.665,"RA_OF_ASC_NODE":267.2183,"ARG_OF_PERICENTER":352.4325,"MEAN_ANOMALY":7.6692,"EPHEMERIS_TYPE":0,"NORAD_CAT_ID":68697,"ELEMENT_SET_NO":999,"REV_AT_EPOCH":1315,"BSTAR":0.00020148667,"MEAN_MOTION_DOT":0.00003142,"MEAN_MOTION_DDOT":0},{"OBJECT_NAME":"JILIN GAOFEN OBJECT H","OBJECT_ID":"2026-080H","EPOCH":"2026-07-09T18:38:51.904896","CLASSIFICATION_TYPE":"U","MEAN_MOTION":15.09098681,"ECCENTRICITY":0.00146847,"INCLINATION":97.6641,"RA_OF_ASC_NODE":266.4127,"ARG_OF_PERICENTER":356.7299,"MEAN_ANOMALY":3.3831,"EPHEMERIS_TYPE":0,"NORAD_CAT_ID":68698,"ELEMENT_SET_NO":999,"REV_AT_EPOCH":1303,"BSTAR":0.00025188848,"MEAN_MOTION_DOT":0.00003937,"MEAN_MOTION_DDOT":0}]}
