JILIN-1 GAOFEN 03D51    
1 54252U 22155B   26191.84500650  .00041054  00000+0  42627-3 0  9997
2 54252  97.6245 338.5156 0004169 247.7262 112.3554 15.64529954203448
JILIN-1 GAOFEN 03D53    
1 54253U 22155C   26191.85880824  .00022239  00000+0  34220-3 0  9997
2 54253  97.6236 333.8047 0004767 270.1062  89.9645 15.54226843203167
JILIN-1 GAOFEN 03D52    
1 54255U 22155E   26191.82549450  .00037533  00000+0  43460-3 0  9992
2 54255  97.6217 336.7268 0003503 265.3342  94.7515 15.61747852203390
JILIN-1 GAOFEN 03D50    
1 54690U 22167J   26191.86096491  .00007203  00000+0  21456-3 0  9996
2 54690  97.6845   0.6820 0005573  35.4302 324.7310 15.35003806198984
JILIN-1 GAOFEN 03D47    
1 54692U 22167L   26191.86283911  .00006860  00000+0  20904-3 0  9998
2 54692  97.6943   2.4211 0008126  43.3397 316.8483 15.34288587198970
JILIN-1 GAOFEN 03D49    
1 54694U 22167N   26191.82380039  .00008754  00000+0  23659-3 0  9999
2 54694  97.6820   3.0191 0006322  62.3338 297.8547 15.37974536199128
JILIN-1 GAOFEN 03D48    
1 54695U 22167P   26191.85556594  .00007024  00000+0  20447-3 0  9995
2 54695  97.6892   2.3895 0006803  44.1940 315.9845 15.35732375199025
JILIN GAOFEN OBJECT A   
1 68691U 26080A   26192.15570228  .00003515  00000+0  22509-3 0  9990
2 68691  97.6616 267.6398 0011579 349.3655  10.7327 15.09176094 13271
JILIN GAOFEN OBJECT B   
1 68692U 26080B   26191.54067667  .00003176  00000+0  20410-3 0  9993
2 68692  97.6594 267.0416 0015140 330.3466  29.6903 15.09080685 13189
JILIN GAOFEN OBJECT C   
1 68693U 26080C   26192.15437660  .00003480  00000+0  22294-3 0  9996
2 68693  97.6594 267.6230 0012394 329.6909  30.3601 15.09159850 13276
JILIN GAOFEN OBJECT D   
1 68694U 26080D   26191.60739772  .00003010  00000+0  19430-3 0  9992
2 68694  97.6659 267.1791 0016817 342.1655  17.8981 15.08936853 13173
JILIN GAOFEN OBJECT E   
1 68695U 26080E   26191.65623700  .00002603  00000+0  16746-3 0  9995
2 68695  97.6637 267.2476 0012819 354.0286   6.0787 15.09229127 13164
JILIN GAOFEN OBJECT F   
1 68696U 26080F   26191.65514942  .00002612  00000+0  16814-3 0  9999
2 68696  97.6608 267.2168 0013940 359.6226   0.4990 15.09193446 13160
JILIN GAOFEN OBJECT G   
1 68697U 26080G   26191.57491654  .00003142  00000+0  20149-3 0  9990
2 68697  97.6650 267.2183 0013831 352.4325   7.6692 15.09175498 13159
JILIN GAOFEN OBJECT H   
1 68698U 26080H   26190.77698964  .00003937  00000+0  25189-3 0  9996
2 68698  97.6641 266.4127 0014684 356.7299   3.3831 15.09098681 13036
